BSAT-4B                 
1 46112U 20056A   20252.48539924 -.00000343  00000-0  00000-0 0  9993
2 46112   0.0440 306.1230 0004303   9.7562 312.2846  1.00338020   269
MEV-2                   
1 46113U 20056B   20250.04413223 -.00000085  00000-0  00000+0 0  9999
2 46113   3.6163 121.2949 5679467 184.8189 113.1302  1.89665302   424
GALAXY 30               
1 46114U 20056C   20253.05557334 -.00000182  00000-0  00000-0 0  9995
2 46114   0.0163 355.8041 0000519 224.9825 232.3236  1.00272981   293
ARIANE 5 DEB [SYLDA]    
1 46115U 20056D   20252.73045521  .00003997  00000-0  20646-2 0  9996
2 46115   6.0478 114.9450 7267677 197.4140 110.3780  2.28328403   547
ARIANE 5 R/B            
1 46116U 20056E   20252.69408877  .00000162  00000-0  18735-3 0  9997
2 46116   5.8145 117.4740 7268417 194.8132 119.6073  2.28681443   555
STARLINK-1585           
1 46117U 20057A   20253.25001157  .00023914  00000-0  23179-3 0  9990
2 46117  52.9981 333.6315 0008205 284.8299  16.6846 15.66239062  1828
STARLINK-1588           
1 46118U 20057B   20253.25001157  .00025267  00000-0  28066-3 0  9994
2 46118  53.0002 333.9901 0001099  57.3443  75.4526 15.62776177  1778
STARLINK-1593           
1 46119U 20057C   20253.50001157 -.00105592  00000-0 -11590-2 0  9998
2 46119  52.9998 332.7577 0001315  51.5635  52.3699 15.62826344  4126
